[{"OBJECT_NAME":"LEMUR-2-VALHALLA","OBJECT_ID":"2024-022B","EPOCH":"2026-03-09T12:58:09.060096","MEAN_MOTION":15.36522305,"ECCENTRICITY":0.00112289,"INCLINATION":97.4228,"RA_OF_ASC_NODE":277.4862,"ARG_OF_PERICENTER":109.8773,"MEAN_ANOMALY":250.3682,"EPHEMERIS_TYPE":0,"CLASSIFICATION_TYPE":"U","NORAD_CAT_ID":58900,"ELEMENT_SET_NO":999,"REV_AT_EPOCH":11695,"BSTAR":0.00053647225,"MEAN_MOTION_DOT":0.00019103,"MEAN_MOTION_DDOT":0},{"OBJECT_NAME":"OBJECT AU","OBJECT_ID":"2024-199AU","EPOCH":"2026-03-09T22:39:39.982464","MEAN_MOTION":15.41914594,"ECCENTRICITY":0.0013813,"INCLINATION":97.3147,"RA_OF_ASC_NODE":301.0833,"ARG_OF_PERICENTER":281.8371,"MEAN_ANOMALY":78.1327,"EPHEMERIS_TYPE":0,"CLASSIFICATION_TYPE":"U","NORAD_CAT_ID":61777,"ELEMENT_SET_NO":999,"REV_AT_EPOCH":11887,"BSTAR":0.00048321732,"MEAN_MOTION_DOT":0.00020549,"MEAN_MOTION_DDOT":0}]
